{"type": "FeatureCollection", "features": [ {"type": "Feature", "properties": {"norad_id": 66462, "name": "STARLINK-35499", "group": "last-30-days", "lat": -15.043552293702485, "lon": -55.05321812354585, "alt_km": 416.5711048490866, "timestamp": "2025-12-06T09:34:15.698646+00:00", "meta": {"OBJECT_NAME": "STARLINK-35499", "OBJECT_ID": "2025-262G", "EPOCH": "2025-12-05T22:00:03.000096", "MEAN_MOTION": 15.50621923, "ECCENTRICITY": 0.00012484, "INCLINATION": 43.0004, "RA_OF_ASC_NODE": 111.0041, "ARG_OF_PERICENTER": 281.0063, "MEAN_ANOMALY": 107.0143, "EPHEMERIS_TYPE": 0, "CLASSIFICATION_TYPE": "U", "NORAD_CAT_ID": 66462, "ELEMENT_SET_NO": 999, "REV_AT_EPOCH": 454, "BSTAR": -0.0017242272, "MEAN_MOTION_DOT": -0.00100359, "MEAN_MOTION_DDOT": 0}, "tle": {"line1": "1 66462U 25262G   25339.91670139 -.00100359  00000+0 -17242-2 0  9996", "line2": "2 66462  43.0004 111.0041 0001248 281.0063 107.0143 15.50621923  4543"}}, "geometry": {"type": "Point", "coordinates": [-55.05321812354585, -15.043552293702485]}}, {"type": "Feature", "properties": {"norad_id": 66463, "name": "STARLINK-35463", "group": "last-30-days", "lat": -17.525924760438162, "lon": -52.01724288622006, "alt_km": 416.54216893410376, "timestamp": "2025-12-06T09:34:15.698655+00:00", "meta": {"OBJECT_NAME": "STARLINK-35463", "OBJECT_ID": "2025-262H", "EPOCH": "2025-12-05T22:00:03.000096", "MEAN_MOTION": 15.50619558, "ECCENTRICITY": 0.0001651, "INCLINATION": 43.0002, "RA_OF_ASC_NODE": 110.994, "ARG_OF_PERICENTER": 274.1296, "MEAN_ANOMALY": 117.7283, "EPHEMERIS_TYPE": 0, "CLASSIFICATION_TYPE": "U", "NORAD_CAT_ID": 66463, "ELEMENT_SET_NO": 999, "REV_AT_EPOCH": 454, "BSTAR": -0.0015635447, "MEAN_MOTION_DOT": -0.0009114, "MEAN_MOTION_DDOT": 0}, "tle": {"line1": "1 66463U 25262H   25339.91670139 -.00091140  00000+0 -15635-2 0  9998", "line2": "2 66463  43.0002 110.9940 0001651 274.1296 117.7283 15.50619558  4541"}}, "geometry": {"type": "Point", "coordinates": [-52.01724288622006, -17.525924760438162]}}, {"type": "Feature", "properties": {"norad_id": 66464, "name": "STARLINK-35435", "group": "last-30-days", "lat": -16.291003423549924, "lon": -53.54365149078986, "alt_km": 416.685587576756, "timestamp": "2025-12-06T09:34:15.698667+00:00", "meta": {"OBJECT_NAME": "STARLINK-35435", "OBJECT_ID": "2025-262J", "EPOCH": "2025-12-05T22:00:03.000096", "MEAN_MOTION": 15.50626958, "ECCENTRICITY": 0.00012684, "INCLINATION": 43.0005, "RA_OF_ASC_NODE": 110.9994, "ARG_OF_PERICENTER": 282.1604, "MEAN_ANOMALY": 107.7781, "EPHEMERIS_TYPE": 0, "CLASSIFICATION_TYPE": "U", "NORAD_CAT_ID": 66464, "ELEMENT_SET_NO": 999, "REV_AT_EPOCH": 454, "BSTAR": -0.0018591972, "MEAN_MOTION_DOT": -0.00108102, "MEAN_MOTION_DDOT": 0}, "tle": {"line1": "1 66464U 25262J   25339.91670139 -.00108102  00000+0 -18592-2 0  9991", "line2": "2 66464  43.0005 110.9994 0001268 282.1604 107.7781 15.50626958  4544"}}, "geometry": {"type": "Point", "coordinates": [-53.54365149078986, -16.291003423549924]}}, {"type": "Feature", "properties": {"norad_id": 66465, "name": "STARLINK-35448", "group": "last-30-days", "lat": -19.955147037933067, "lon": -48.90375644420184, "alt_km": 416.56948763701985, "timestamp": "2025-12-06T09:34:15.698677+00:00", "meta": {"OBJECT_NAME": "STARLINK-35448", "OBJECT_ID": "2025-262K", "EPOCH": "2025-12-05T22:00:03.000096", "MEAN_MOTION": 15.50606171, "ECCENTRICITY": 0.00018242, "INCLINATION": 43.0002, "RA_OF_ASC_NODE": 110.9849, "ARG_OF_PERICENTER": 271.4412, "MEAN_ANOMALY": 124.2523, "EPHEMERIS_TYPE": 0, "CLASSIFICATION_TYPE": "U", "NORAD_CAT_ID": 66465, "ELEMENT_SET_NO": 999, "REV_AT_EPOCH": 454, "BSTAR": -0.001202471, "MEAN_MOTION_DOT": -0.00070325, "MEAN_MOTION_DDOT": 0}, "tle": {"line1": "1 66465U 25262K   25339.91670139 -.00070325  00000+0 -12025-2 0  9992", "line2": "2 66465  43.0002 110.9849 0001824 271.4412 124.2523 15.50606171  4540"}}, "geometry": {"type": "Point", "coordinates": [-48.90375644420184, -19.955147037933067]}}, {"type": "Feature", "properties": {"norad_id": 66466, "name": "STARLINK-35388", "group": "last-30-days", "lat": -21.152229869021756, "lon": -47.309402097323634, "alt_km": 417.013119746377, "timestamp": "2025-12-06T09:34:15.698689+00:00", "meta": {"OBJECT_NAME": "STARLINK-35388", "OBJECT_ID": "2025-262L", "EPOCH": "2025-12-05T22:00:03.000096", "MEAN_MOTION": 15.50621301, "ECCENTRICITY": 0.00012619, "INCLINATION": 43.0005, "RA_OF_ASC_NODE": 110.9788, "ARG_OF_PERICENTER": 282.7149, "MEAN_ANOMALY": 114.8934, "EPHEMERIS_TYPE": 0, "CLASSIFICATION_TYPE": "U", "NORAD_CAT_ID": 66466, "ELEMENT_SET_NO": 999, "REV_AT_EPOCH": 454, "BSTAR": -0.0017457421, "MEAN_MOTION_DOT": -0.00101589, "MEAN_MOTION_DDOT": 0}, "tle": {"line1": "1 66466U 25262L   25339.91670139 -.00101589  00000+0 -17457-2 0  9994", "line2": "2 66466  43.0005 110.9788 0001261 282.7149 114.8934 15.50621301  4546"}}, "geometry": {"type": "Point", "coordinates": [-47.309402097323634, -21.152229869021756]}}, {"type": "Feature", "properties": {"norad_id": 66467, "name": "STARLINK-35682", "group": "last-30-days", "lat": -18.747978685965972, "lon": -50.47021331744269, "alt_km": 416.62279952553854, "timestamp": "2025-12-06T09:34:15.698699+00:00", "meta": {"OBJECT_NAME": "STARLINK-35682", "OBJECT_ID": "2025-262M", "EPOCH": "2025-12-05T22:00:03.000096", "MEAN_MOTION": 15.50617558, "ECCENTRICITY": 0.00017524, "INCLINATION": 43.0003, "RA_OF_ASC_NODE": 110.9898, "ARG_OF_PERICENTER": 275.5922, "MEAN_ANOMALY": 118.1847, "EPHEMERIS_TYPE": 0, "CLASSIFICATION_TYPE": "U", "NORAD_CAT_ID": 66467, "ELEMENT_SET_NO": 999, "REV_AT_EPOCH": 454, "BSTAR": -0.0015327527, "MEAN_MOTION_DOT": -0.00089367, "MEAN_MOTION_DDOT": 0}, "tle": {"line1": "1 66467U 25262M   25339.91670139 -.00089367  00000+0 -15328-2 0  9999", "line2": "2 66467  43.0003 110.9898 0001752 275.5922 118.1847 15.50617558  4540"}}, "geometry": {"type": "Point", "coordinates": [-50.47021331744269, -18.747978685965972]}}, {"type": "Feature", "properties": {"norad_id": 66468, "name": "STARLINK-35331", "group": "last-30-days", "lat": -22.322614539088672, "lon": -45.70236569049376, "alt_km": 416.7787815711463, "timestamp": "2025-12-06T09:34:15.698709+00:00", "meta": {"OBJECT_NAME": "STARLINK-35331", "OBJECT_ID": "2025-262N", "EPOCH": "2025-12-05T22:00:03.000096", "MEAN_MOTION": 15.50530679, "ECCENTRICITY": 0.00016405, "INCLINATION": 43.0003, "RA_OF_ASC_NODE": 110.9749, "ARG_OF_PERICENTER": 279.8091, "MEAN_ANOMALY": 119.7311, "EPHEMERIS_TYPE": 0, "CLASSIFICATION_TYPE": "U", "NORAD_CAT_ID": 66468, "ELEMENT_SET_NO": 999, "REV_AT_EPOCH": 454, "BSTAR": 0.000908821, "MEAN_MOTION_DOT": 0.00053246, "MEAN_MOTION_DDOT": 0}, "tle": {"line1": "1 66468U 25262N   25339.91670139  .00053246  00000+0  90882-3 0  9994", "line2": "2 66468  43.0003 110.9749 0001640 279.8091 119.7311 15.50530679  4547"}}, "geometry": {"type": "Point", "coordinates": [-45.70236569049376, -22.322614539088672]}}, {"type": "Feature", "properties": {"norad_id": 66469, "name": "STARLINK-35451", "group": "last-30-days", "lat": -25.746904042999912, "lon": -40.69320458067177, "alt_km": 417.2194756076824, "timestamp": "2025-12-06T09:34:15.698718+00:00", "meta": {"OBJECT_NAME": "STARLINK-35451", "OBJECT_ID": "2025-262P", "EPOCH": "2025-12-05T22:00:03.000096", "MEAN_MOTION": 15.50578099, "ECCENTRICITY": 0.00012542, "INCLINATION": 43.0003, "RA_OF_ASC_NODE": 110.9596, "ARG_OF_PERICENTER": 274.7208, "MEAN_ANOMALY": 130.5715, "EPHEMERIS_TYPE": 0, "CLASSIFICATION_TYPE": "U", "NORAD_CAT_ID": 66469, "ELEMENT_SET_NO": 999, "REV_AT_EPOCH": 454, "BSTAR": -0.0013392169, "MEAN_MOTION_DOT": -0.00078124, "MEAN_MOTION_DDOT": 0}, "tle": {"line1": "1 66469U 25262P   25339.91670139 -.00078124  00000+0 -13392-2 0  9999", "line2": "2 66469  43.0003 110.9596 0001254 274.7208 130.5715 15.50578099  4540"}}, "geometry": {"type": "Point", "coordinates": [-40.69320458067177, -25.746904042999912]}}, {"type": "Feature", "properties": {"norad_id": 66470, "name": "STARLINK-35655", "group": "last-30-days", "lat": -23.495489313744862, "lon": -44.042848074032925, "alt_km": 416.9075711521118, "timestamp": "2025-12-06T09:34:15.698728+00:00", "meta": {"OBJECT_NAME": "STARLINK-35655", "OBJECT_ID": "2025-262Q", "EPOCH": "2025-12-05T22:00:03.000096", "MEAN_MOTION": 15.50597262, "ECCENTRICITY": 0.00015948, "INCLINATION": 43.0005, "RA_OF_ASC_NODE": 110.97, "ARG_OF_PERICENTER": 276.2389, "MEAN_ANOMALY": 125.2107, "EPHEMERIS_TYPE": 0, "CLASSIFICATION_TYPE": "U", "NORAD_CAT_ID": 66470, "ELEMENT_SET_NO": 999, "REV_AT_EPOCH": 454, "BSTAR": -0.0010141201, "MEAN_MOTION_DOT": -0.00059425, "MEAN_MOTION_DDOT": 0}, "tle": {"line1": "1 66470U 25262Q   25339.91670139 -.00059425  00000+0 -10141-2 0  9993", "line2": "2 66470  43.0005 110.9700 0001594 276.2389 125.2107 15.50597262  4544"}}, "geometry": {"type": "Point", "coordinates": [-44.042848074032925, -23.495489313744862]}}, {"type": "Feature", "properties": {"norad_id": 66471, "name": "STARLINK-35569", "group": "last-30-days", "lat": -24.644767354613716, "lon": -42.36159711878054, "alt_km": 417.2411680777932, "timestamp": "2025-12-06T09:34:15.698738+00:00", "meta": {"OBJECT_NAME": "STARLINK-35569", "OBJECT_ID": "2025-262R", "EPOCH": "2025-12-05T22:00:03.000096", "MEAN_MOTION": 15.50630819, "ECCENTRICITY": 0.00012355, "INCLINATION": 43.0003, "RA_OF_ASC_NODE": 110.9651, "ARG_OF_PERICENTER": 284.1435, "MEAN_ANOMALY": 119.2134, "EPHEMERIS_TYPE": 0, "CLASSIFICATION_TYPE": "U", "NORAD_CAT_ID": 66471, "ELEMENT_SET_NO": 999, "REV_AT_EPOCH": 454, "BSTAR": -0.0019478206, "MEAN_MOTION_DOT": -0.00113181, "MEAN_MOTION_DDOT": 0}, "tle": {"line1": "1 66471U 25262R   25339.91670139 -.00113181  00000+0 -19478-2 0  9996", "line2": "2 66471  43.0003 110.9651 0001235 284.1435 119.2134 15.50630819  4549"}}, "geometry": {"type": "Point", "coordinates": [-42.36159711878054, -24.644767354613716]}}]}